[{"OBJECT_NAME":"STARLINK-33863","OBJECT_ID":"2025-094A","EPOCH":"2026-03-09T20:37:26.193216","MEAN_MOTION":14.98336063,"ECCENTRICITY":0.00031623,"INCLINATION":70.0016,"RA_OF_ASC_NODE":234.2309,"ARG_OF_PERICENTER":273.215,"MEAN_ANOMALY":86.8647,"EPHEMERIS_TYPE":0,"CLASSIFICATION_TYPE":"U","NORAD_CAT_ID":63864,"ELEMENT_SET_NO":999,"REV_AT_EPOCH":4722,"BSTAR":0.00097753967,"MEAN_MOTION_DOT":0.00011592,"MEAN_MOTION_DDOT":0},{"OBJECT_NAME":"FENGYUN 1C DEB","OBJECT_ID":"1999-025DXL","EPOCH":"2026-02-25T04:10:22.321344","MEAN_MOTION":15.11307044,"ECCENTRICITY":0.00591738,"INCLINATION":99.4273,"RA_OF_ASC_NODE":43.0945,"ARG_OF_PERICENTER":165.3437,"MEAN_ANOMALY":194.9519,"EPHEMERIS_TYPE":0,"CLASSIFICATION_TYPE":"U","NORAD_CAT_ID":36283,"ELEMENT_SET_NO":999,"REV_AT_EPOCH":67788,"BSTAR":0.0012995165,"MEAN_MOTION_DOT":0.00022794,"MEAN_MOTION_DDOT":0}]
